[{"OBJECT_NAME":"NEXSAT-1","OBJECT_ID":"2024-024E","EPOCH":"2026-03-09T22:47:24.778176","MEAN_MOTION":15.32166372,"ECCENTRICITY":0.00099795,"INCLINATION":97.3124,"RA_OF_ASC_NODE":144.1918,"ARG_OF_PERICENTER":108.5709,"MEAN_ANOMALY":251.6617,"EPHEMERIS_TYPE":0,"CLASSIFICATION_TYPE":"U","NORAD_CAT_ID":58921,"ELEMENT_SET_NO":999,"REV_AT_EPOCH":11669,"BSTAR":0.00031433612,"MEAN_MOTION_DOT":9.702e-5,"MEAN_MOTION_DDOT":0},{"OBJECT_NAME":"STARLINK-35978","OBJECT_ID":"2025-270P","EPOCH":"2026-03-09T22:22:11.626464","MEAN_MOTION":15.27611046,"ECCENTRICITY":0.00018639,"INCLINATION":43.0012,"RA_OF_ASC_NODE":54.7498,"ARG_OF_PERICENTER":267.9731,"MEAN_ANOMALY":92.0907,"EPHEMERIS_TYPE":0,"CLASSIFICATION_TYPE":"U","NORAD_CAT_ID":66601,"ELEMENT_SET_NO":999,"REV_AT_EPOCH":1758,"BSTAR":0.0013325163,"MEAN_MOTION_DOT":0.00036623,"MEAN_MOTION_DDOT":0}]
